{ "type": "Feature", "properties": { "_pfi": "50586965,50585085,425955908", "addr:housenumber": "39", "addr:street": "Linton Street", "addr:suburb": "Balaclava", "addr:state": "VIC", "addr:postcode": "3183", "addr:unit": null, "addr:flats": null, "addr:flats2": null, "addr:flats3": null, "addr:flats4": null, "addr:flats5": null, "addr:flats6": null, "addr:flats7": null }, "geometry": { "type": "Point", "coordinates": [ 144.9924932, -37.8669844 ] } }
{ "type": "Feature", "properties": { "_pfi": "206441264", "addr:housenumber": "39-41", "addr:street": "Linton Street", "addr:suburb": "Balaclava", "addr:state": "VIC", "addr:postcode": "3183", "addr:unit": null, "addr:flats": null, "addr:flats2": null, "addr:flats3": null, "addr:flats4": null, "addr:flats5": null, "addr:flats6": null, "addr:flats7": null }, "geometry": { "type": "Point", "coordinates": [ 144.9925274, -37.8670149 ] } }
{ "type": "Feature", "properties": { "_pfi": "50585086,425955907", "addr:housenumber": "41", "addr:street": "Linton Street", "addr:suburb": "Balaclava", "addr:state": "VIC", "addr:postcode": "3183", "addr:unit": null, "addr:flats": null, "addr:flats2": null, "addr:flats3": null, "addr:flats4": null, "addr:flats5": null, "addr:flats6": null, "addr:flats7": null }, "geometry": { "type": "Point", "coordinates": [ 144.992463, -37.8670328 ] } }
